KEPLER-21               
1 56218U 23054AS  26068.80780274  .00079942  00000+0  58135-3 0  9999
2 56218  97.2962 342.6260 0004885  55.6816 304.4910 15.73096759163494
STARLINK-11453 [DTC]    
1 62411U 24249C   26068.32309811  .00156197  00000+0  11953-2 0  9993
2 62411  42.9999 169.8073 0001471 261.8350  98.2351 15.70893516 69424
